{
  "type": "FeatureCollection",
  "name": "ParcelarioRioMendoza-DerechoSuperior_wgs84",
  "crs": {
    "type": "name",
    "properties": {
      "name": "urn:ogc:def:crs:OGC:1.3:CRS84"
    }
  },
  "features": [
    {
      "type": "Feature",
      "properties": {
        "ccpp1": "1016 589"
      },
      "geometry": {
        "type": "MultiPolygon",
        "coordinates": [
          [
            [
              [
                -68.89332573070929,
                -32.98934891012701
              ],
              [
                -68.89361822854373,
                -32.98933672463071
              ],
              [
                -68.89368035004422,
                -32.989421895936566
              ],
              [
                -68.8937087914547,
                -32.98944813823915
              ],
              [
                -68.89365536348886,
                -32.98948394255876
              ],
              [
                -68.8935393778803,
                -32.98956167114784
              ],
              [
                -68.89332573070929,
                -32.98934891012701
              ]
            ]
          ]
        ]
      }
    },
    {
      "type": "Feature",
      "properties": {
        "ccpp1": "1104 541"
      },
      "geometry": {
        "type": "MultiPolygon",
        "coordinates": [
          [
            [
              [
                -68.91890484607127,
                -33.00634351538036
              ],
              [
                -68.92064489831777,
                -33.00523795641771
              ],
              [
                -68.92336211931774,
                -33.0063402360745
              ],
              [
                -68.92484510964385,
                -33.00606324303655
              ],
              [
                -69.08359162105908,
                -32.976460556271654
              ],
              [
                -69.0844488842775,
                -32.97849379423444
              ],
              [
                -69.08812539532744,
                -32.98246413822987
              ],
              [
                -69.06510228129204,
                -32.9864035740001
              ],
              [
                -69.03869391555814,
                -32.99091659476894
              ],
              [
                -69.02598301320363,
                -32.99308665003422
              ],
              [
                -68.97770459346363,
                -33.001316170952506
              ],
              [
                -68.96138631472353,
                -33.004093208601894
              ],
              [
                -68.96115376176287,
                -33.004132767833326
              ],
              [
                -68.94883979410581,
                -33.00622680131194
              ],
              [
                -68.94170306377484,
                -33.00743982486555
              ],
              [
                -68.93090169670287,
                -33.00927488453746
              ],
              [
                -68.93073304109362,
                -33.00923332301129
              ],
              [
                -68.9301199805049,
                -33.00911026148735
              ],
              [
                -68.92971389477526,
                -33.00904452497033
              ],
              [
                -68.9219333951925,
                -33.00781700780244
              ],
              [
                -68.9216509261087,
                -33.00776285292538
              ],
              [
                -68.92136019477653,
                -33.00769301026295
              ],
              [
                -68.92103111956652,
                -33.00759788493611
              ],
              [
                -68.92076854743911,
                -33.00748196685329
              ],
              [
                -68.92021983598923,
                -33.00720309879645
              ],
              [
                -68.91997188334452,
                -33.00706442286871
              ],
              [
                -68.91957024198712,
                -33.00680382752919
              ],
              [
                -68.91890484607127,
                -33.00634351538036
              ]
            ]
          ]
        ]
      }
    },
    {
      "type": "Feature",
      "properties": {
        "ccpp1": "1104 73"
      },
      "geometry": {
        "type": "MultiPolygon",
        "coordinates": [
          [
            [
              [
                -69.03876768367692,
                -32.97952411201768
              ],
              [
                -69.08149671860399,
                -32.97149149616311
              ],
              [
                -69.08359162105908,
                -32.976460556271654
              ],
              [
                -68.92484510964385,
                -33.00606324303655
              ],
              [
                -68.92336211931774,
                -33.0063402360745
              ],
              [
                -68.92064489831777,
                -33.00523795641771
              ],
              [
                -68.91890484607127,
                -33.00634351538036
              ],
              [
                -68.91392166349243,
                -33.00289595153753
              ],
              [
                -68.91393065251852,
                -33.00290006937867
              ],
              [
                -69.01767779997264,
                -32.983482864359786
              ],
              [
                -69.03876768367692,
                -32.97952411201768
              ]
            ]
          ]
        ]
      }
    },
    {
      "type": "Feature",
      "properties": {
        "ccpp1": "1016 3118"
      },
      "geometry": {
        "type": "MultiPolygon",
        "coordinates": [
          [
            [
              [
                -68.89360242719673,
                -32.98962445912724
              ],
              [
                -68.8935393778803,
                -32.98956167114784
              ],
              [
                -68.89365536348886,
                -32.98948394255876
              ],
              [
                -68.89369678335912,
                -32.98952783994974
              ],
              [
                -68.89359629311474,
                -32.98959518543616
              ],
              [
                -68.89361527197495,
                -32.9896152982043
              ],
              [
                -68.89360242719673,
                -32.98962445912724
              ]
            ]
          ]
        ]
      }
    }
  ]
}